SHIYAN-1 (SY-1)         
1 28220U 04012A   26068.73650539  .00016393  00000+0  54854-3 0  9991
2 28220  97.8764 140.5238 0005873  23.6952 336.4557 15.31043463195862
STARLINK-34151          
1 64120U 25110AA  26068.26982788  .00032078  00000+0  10903-2 0  9998
2 64120  53.1611  29.0320 0001132  98.8965 261.2164 15.30206250 45814
